{
  "norad_id": 46048,
  "name": "STARLINK-1527",
  "history": [
    {
      "epoch": "2026-03-28T12:52:53.726016Z",
      "apogee_km": 475.96941754976615,
      "perigee_km": 474.3218883999907,
      "latitude_deg": 4.138040274050279e-05,
      "longitude_deg": 7.215308517601363,
      "height_km": 475.94598127064626,
      "semi_major_axis_km": 6853.282652974878,
      "eccentricity": 0.0001202,
      "inclination_deg": 53.1616,
      "raan_deg": 26.3949,
      "arg_perigee_deg": 83.1656,
      "mean_anomaly_deg": 276.9482,
      "mean_motion_rev_day": 15.30223249
    },
    {
      "epoch": "2026-03-29T01:25:19.731360Z",
      "apogee_km": 475.9345776282107,
      "perigee_km": 474.4720748025975,
      "latitude_deg": 2.8836672865272324e-07,
      "longitude_deg": 176.16669977655081,
      "height_km": 476.1042596780793,
      "semi_major_axis_km": 6853.340326215404,
      "eccentricity": 0.0001067,
      "inclination_deg": 53.1604,
      "raan_deg": 23.9697,
      "arg_perigee_deg": 90.1989,
      "mean_anomaly_deg": 269.9134,
      "mean_motion_rev_day": 15.30203933
    },
    {
      "epoch": "2026-03-30T02:30:12.187872Z",
      "apogee_km": 476.0770701964657,
      "perigee_km": 474.40895750109576,
      "latitude_deg": 5.047669779371465e-06,
      "longitude_deg": 154.0664852805018,
      "height_km": 476.1945877056199,
      "semi_major_axis_km": 6853.38001384878,
      "eccentricity": 0.0001217,
      "inclination_deg": 53.1625,
      "raan_deg": 19.1181,
      "arg_perigee_deg": 93.6543,
      "mean_anomaly_deg": 266.4597,
      "mean_motion_rev_day": 15.30190641
    },
    {
      "epoch": "2026-03-30T05:38:18.255264Z",
      "apogee_km": 476.0412954975309,
      "perigee_km": 474.4226668115625,
      "latitude_deg": 4.435880865194196e-06,
      "longitude_deg": 106.30235353190636,
      "height_km": 476.09805955360326,
      "semi_major_axis_km": 6853.368981154546,
      "eccentricity": 0.00011809,
      "inclination_deg": 53.1617,
      "raan_deg": 18.508,
      "arg_perigee_deg": 87.7127,
      "mean_anomaly_deg": 272.4009,
      "mean_motion_rev_day": 15.30194336
    },
    {
      "epoch": "2026-03-30T11:54:30.564576Z",
      "apogee_km": 476.1486843879402,
      "perigee_km": 474.27662339648305,
      "latitude_deg": -2.1265523760064464e-05,
      "longitude_deg": 10.781542608298011,
      "height_km": 476.1178329683715,
      "semi_major_axis_km": 6853.349653892212,
      "eccentricity": 0.00013658,
      "inclination_deg": 53.1628,
      "raan_deg": 17.296,
      "arg_perigee_deg": 90.4243,
      "mean_anomaly_deg": 269.6914,
      "mean_motion_rev_day": 15.30200809
    },
    {
      "epoch": "2026-03-30T19:44:45.511008Z",
      "apogee_km": 475.9267002887418,
      "perigee_km": 474.45035690337227,
      "latitude_deg": 2.12362945385381e-05,
      "longitude_deg": -108.62087622801774,
      "height_km": 476.15055070692625,
      "semi_major_axis_km": 6853.325528596057,
      "eccentricity": 0.00010771,
      "inclination_deg": 53.162,
      "raan_deg": 15.7777,
      "arg_perigee_deg": 94.9322,
      "mean_anomaly_deg": 265.1802,
      "mean_motion_rev_day": 15.30208889
    },
    {
      "epoch": "2026-03-31T19:15:34.527744Z",
      "apogee_km": 476.60490639782256,
      "perigee_km": 473.8950771812688,
      "latitude_deg": 3.7947146325245476e-06,
      "longitude_deg": -106.841294176069,
      "height_km": 475.9551411106249,
      "semi_major_axis_km": 6853.386991789545,
      "eccentricity": 0.0001977,
      "inclination_deg": 53.1626,
      "raan_deg": 11.2272,
      "arg_perigee_deg": 81.8436,
      "mean_anomaly_deg": 278.2789,
      "mean_motion_rev_day": 15.30188304
    },
    {
      "epoch": "2026-04-01T04:39:54.067392Z",
      "apogee_km": 475.9336357338834,
      "perigee_km": 474.5725524611953,
      "latitude_deg": 4.362916476392515e-05,
      "longitude_deg": 109.87085362607839,
      "height_km": 476.1257854434283,
      "semi_major_axis_km": 6853.390094097539,
      "eccentricity": 9.93e-05,
      "inclination_deg": 53.1634,
      "raan_deg": 9.407,
      "arg_perigee_deg": 87.8009,
      "mean_anomaly_deg": 272.3106,
      "mean_motion_rev_day": 15.30187265
    },
    {
      "epoch": "2026-04-02T18:17:10.249152Z",
      "apogee_km": 478.70996714955163,
      "perigee_km": 471.53871448252266,
      "latitude_deg": -1.659065183884486e-05,
      "longitude_deg": -103.27225991486827,
      "height_km": 475.60289177604136,
      "semi_major_axis_km": 6853.261340816037,
      "eccentricity": 0.0005232,
      "inclination_deg": 53.1646,
      "raan_deg": 2.1264,
      "arg_perigee_deg": 83.3762,
      "mean_anomaly_deg": 276.7834,
      "mean_motion_rev_day": 15.30230387
    },
    {
      "epoch": "2026-04-02T22:59:19.923072Z",
      "apogee_km": 476.1006216428541,
      "perigee_km": 474.3384866056567,
      "latitude_deg": 2.299895078319915e-05,
      "longitude_deg": -174.91457078680523,
      "height_km": 476.2389746377783,
      "semi_major_axis_km": 6853.356554124255,
      "eccentricity": 0.00012856,
      "inclination_deg": 53.1631,
      "raan_deg": 1.2175,
      "arg_perigee_deg": 97.8951,
      "mean_anomaly_deg": 262.2196,
      "mean_motion_rev_day": 15.30198498
    },
    {
      "epoch": "2026-04-03T20:56:04.164288Z",
      "apogee_km": 475.92885315547755,
      "perigee_km": 474.4718336362721,
      "latitude_deg": -5.916458959870889e-06,
      "longitude_deg": -149.25370545715933,
      "height_km": 476.1640860373289,
      "semi_major_axis_km": 6853.337343395875,
      "eccentricity": 0.0001063,
      "inclination_deg": 53.161,
      "raan_deg": 356.964,
      "arg_perigee_deg": 95.1404,
      "mean_anomaly_deg": 264.9718,
      "mean_motion_rev_day": 15.30204932
    },
    {
      "epoch": "2026-04-03T22:30:07.293888Z",
      "apogee_km": 475.91423634581406,
      "perigee_km": 474.4824375272219,
      "latitude_deg": 3.0966565582832556e-05,
      "longitude_deg": -173.1343943997555,
      "height_km": 476.1818129797908,
      "semi_major_axis_km": 6853.335336936518,
      "eccentricity": 0.00010446,
      "inclination_deg": 53.1611,
      "raan_deg": 356.6607,
      "arg_perigee_deg": 96.8166,
      "mean_anomaly_deg": 263.2954,
      "mean_motion_rev_day": 15.30205604
    },
    {
      "epoch": "2026-04-05T02:43:04.348128Z",
      "apogee_km": 476.00221058595616,
      "perigee_km": 474.38180947482397,
      "latitude_deg": -1.2416630297077788e-05,
      "longitude_deg": 117.01146240334866,
      "height_km": 476.0664326663093,
      "semi_major_axis_km": 6853.329010030389,
      "eccentricity": 0.00011822,
      "inclination_deg": 53.162,
      "raan_deg": 351.2031,
      "arg_perigee_deg": 88.303,
      "mean_anomaly_deg": 271.8106,
      "mean_motion_rev_day": 15.30207723
    },
    {
      "epoch": "2026-04-05T23:05:47.445216Z",
      "apogee_km": 476.16320840828485,
      "perigee_km": 474.35843462596677,
      "latitude_deg": 2.110466586092992e-05,
      "longitude_deg": 166.55279372773492,
      "height_km": 476.0179224428451,
      "semi_major_axis_km": 6853.3978215171255,
      "eccentricity": 0.00013167,
      "inclination_deg": 53.1629,
      "raan_deg": 347.2609,
      "arg_perigee_deg": 80.9953,
      "mean_anomaly_deg": 279.1197,
      "mean_motion_rev_day": 15.30184677
    },
    {
      "epoch": "2026-04-07T09:34:56.924544Z",
      "apogee_km": 475.9418134075004,
      "perigee_km": 474.52124717854076,
      "latitude_deg": -2.4911248098827438e-05,
      "longitude_deg": 1.1741702079069092,
      "height_km": 475.85741215481534,
      "semi_major_axis_km": 6853.36853029302,
      "eccentricity": 0.00010364,
      "inclination_deg": 53.1592,
      "raan_deg": 340.5881,
      "arg_perigee_deg": 67.4369,
      "mean_anomaly_deg": 292.6741,
      "mean_motion_rev_day": 15.30194487
    },
    {
      "epoch": "2026-04-07T20:33:21.873888Z",
      "apogee_km": 476.35618494323444,
      "perigee_km": 474.278217629404,
      "latitude_deg": 1.250279974165527e-05,
      "longitude_deg": -166.0038284745852,
      "height_km": 476.1296127377288,
      "semi_major_axis_km": 6853.454201286319,
      "eccentricity": 0.0001516,
      "inclination_deg": 53.1624,
      "raan_deg": 338.4647,
      "arg_perigee_deg": 85.2756,
      "mean_anomaly_deg": 274.8418,
      "mean_motion_rev_day": 15.30165795
    },
    {
      "epoch": "2026-04-08T09:05:44.818080Z",
      "apogee_km": 475.90022586171835,
      "perigee_km": 474.51324615642443,
      "latitude_deg": 2.9295109608042162e-05,
      "longitude_deg": 2.9592941894011675,
      "height_km": 476.12825368877617,
      "semi_major_axis_km": 6853.343736009071,
      "eccentricity": 0.00010119,
      "inclination_deg": 53.1613,
      "raan_deg": 336.0384,
      "arg_perigee_deg": 91.897,
      "mean_anomaly_deg": 268.2147,
      "mean_motion_rev_day": 15.30202791
    },
    {
      "epoch": "2026-04-09T19:34:56.474688Z",
      "apogee_km": 476.15790470570846,
      "perigee_km": 474.4157643669687,
      "latitude_deg": -2.992605030456736e-05,
      "longitude_deg": -162.43223657777662,
      "height_km": 476.186698464457,
      "semi_major_axis_km": 6853.423834536338,
      "eccentricity": 0.0001271,
      "inclination_deg": 53.1612,
      "raan_deg": 329.3618,
      "arg_perigee_deg": 90.1096,
      "mean_anomaly_deg": 270.005,
      "mean_motion_rev_day": 15.30175965
    },
    {
      "epoch": "2026-04-10T08:07:21.440640Z",
      "apogee_km": 476.16671070737357,
      "perigee_km": 474.33685590223104,
      "latitude_deg": 1.3846992306431898e-05,
      "longitude_deg": 6.520459370725413,
      "height_km": 476.6423907523871,
      "semi_major_axis_km": 6853.388783304802,
      "eccentricity": 0.0001335,
      "inclination_deg": 53.1618,
      "raan_deg": 326.9335,
      "arg_perigee_deg": 122.5422,
      "mean_anomaly_deg": 237.5708,
      "mean_motion_rev_day": 15.30187704
    },
    {
      "epoch": "2026-04-11T18:36:31.959360Z",
      "apogee_km": 476.2940722662279,
      "perigee_km": 474.24353325004176,
      "latitude_deg": 8.852990404682312e-06,
      "longitude_deg": -158.86297530977313,
      "height_km": 476.2267442855892,
      "semi_major_axis_km": 6853.405802758134,
      "eccentricity": 0.0001496,
      "inclination_deg": 53.162,
      "raan_deg": 320.2602,
      "arg_perigee_deg": 93.3533,
      "mean_anomaly_deg": 266.7639,
      "mean_motion_rev_day": 15.30182004
    },
    {
      "epoch": "2026-04-13T06:39:44.822304Z",
      "apogee_km": 476.12698154277314,
      "perigee_km": 474.31879107037,
      "latitude_deg": -3.4711584482128874e-05,
      "longitude_deg": 11.875128307135222,
      "height_km": 476.315274362257,
      "semi_major_axis_km": 6853.359886306571,
      "eccentricity": 0.00013192,
      "inclination_deg": 53.1615,
      "raan_deg": 313.2826,
      "arg_perigee_deg": 102.4023,
      "mean_anomaly_deg": 257.7125,
      "mean_motion_rev_day": 15.30197382
    },
    {
      "epoch": "2026-04-14T20:17:01.228704Z",
      "apogee_km": 476.13644237444714,
      "perigee_km": 474.3833434492399,
      "latitude_deg": -2.9730057064118947e-06,
      "longitude_deg": 158.7302448842862,
      "height_km": 476.2103117828328,
      "semi_major_axis_km": 6853.396892911843,
      "eccentricity": 0.0001279,
      "inclination_deg": 53.1606,
      "raan_deg": 306.0011,
      "arg_perigee_deg": 93.4203,
      "mean_anomaly_deg": 266.6944,
      "mean_motion_rev_day": 15.30184988
    }
  ]
}